[{"OBJECT_NAME":"STARLINK-2732","OBJECT_ID":"2021-044J","EPOCH":"2026-03-09T12:25:10.609824","MEAN_MOTION":15.30198607,"ECCENTRICITY":0.00013938,"INCLINATION":53.1602,"RA_OF_ASC_NODE":114.6961,"ARG_OF_PERICENTER":91.9963,"MEAN_ANOMALY":268.1197,"EPHEMERIS_TYPE":0,"CLASSIFICATION_TYPE":"U","NORAD_CAT_ID":48646,"ELEMENT_SET_NO":999,"REV_AT_EPOCH":26380,"BSTAR":6.5998074e-5,"MEAN_MOTION_DOT":1.596e-5,"MEAN_MOTION_DDOT":0},{"OBJECT_NAME":"CONTECSAT-1","OBJECT_ID":"2024-043V","EPOCH":"2026-03-09T22:02:35.535840","MEAN_MOTION":15.34615346,"ECCENTRICITY":0.00100896,"INCLINATION":97.5476,"RA_OF_ASC_NODE":207.3735,"ARG_OF_PERICENTER":223.9905,"MEAN_ANOMALY":136.0535,"EPHEMERIS_TYPE":0,"CLASSIFICATION_TYPE":"U","NORAD_CAT_ID":59117,"ELEMENT_SET_NO":999,"REV_AT_EPOCH":11201,"BSTAR":0.0004369392,"MEAN_MOTION_DOT":0.00014607,"MEAN_MOTION_DDOT":0}]
